{
  "norad_id": 20026,
  "name": "COSMOS 2024 (ETALON 2)",
  "history": [
    {
      "epoch": "2026-04-21T17:28:34.229280Z",
      "apogee_km": 19174.08113345798,
      "perigee_km": 19069.343053291854,
      "latitude_deg": -10.347057045744346,
      "longitude_deg": -164.34220199208184,
      "height_km": 19161.68053379809,
      "semi_major_axis_km": 25499.849093374916,
      "eccentricity": 0.0020537,
      "inclination_deg": 64.9691,
      "raan_deg": 312.4808,
      "arg_perigee_deg": 212.8924,
      "mean_anomaly_deg": 135.5483,
      "mean_motion_rev_day": 2.1320449
    },
    {
      "epoch": "2026-04-22T09:55:51.731616Z",
      "apogee_km": 19174.089483810818,
      "perigee_km": 19069.334065057545,
      "latitude_deg": 22.98044138069516,
      "longitude_deg": 121.6098514191588,
      "height_km": 19094.996330278933,
      "semi_major_axis_km": 25499.84877443418,
      "eccentricity": 0.00205404,
      "inclination_deg": 64.9688,
      "raan_deg": 312.4571,
      "arg_perigee_deg": 212.887,
      "mean_anomaly_deg": 301.7886,
      "mean_motion_rev_day": 2.13204494
    },
    {
      "epoch": "2026-04-24T13:11:38.285088Z",
      "apogee_km": 19174.07586690985,
      "perigee_km": 19069.342897848146,
      "latitude_deg": -5.248344502270849,
      "longitude_deg": -100.55616337111529,
      "height_km": 19163.98009994645,
      "semi_major_axis_km": 25499.846382378997,
      "eccentricity": 0.0020536,
      "inclination_deg": 64.9675,
      "raan_deg": 312.3835,
      "arg_perigee_deg": 212.8623,
      "mean_anomaly_deg": 141.228,
      "mean_motion_rev_day": 2.13204524
    },
    {
      "epoch": "2026-04-25T11:28:50.373120Z",
      "apogee_km": 19174.074428729615,
      "perigee_km": 19069.341465562695,
      "latitude_deg": -11.79918025803034,
      "longitude_deg": -78.94049499978019,
      "height_km": 19161.05303430168,
      "semi_major_axis_km": 25499.844947146154,
      "eccentricity": 0.0020536,
      "inclination_deg": 64.967,
      "raan_deg": 312.3514,
      "arg_perigee_deg": 212.8483,
      "mean_anomaly_deg": 133.9818,
      "mean_motion_rev_day": 2.13204542
    },
    {
      "epoch": "2026-04-26T23:06:13.203648Z",
      "apogee_km": 19174.08497208546,
      "perigee_km": 19069.32550021721,
      "latitude_deg": 40.71812494590663,
      "longitude_deg": 134.477080348724,
      "height_km": 19177.136440830138,
      "semi_major_axis_km": 25499.842236151337,
      "eccentricity": 0.00205412,
      "inclination_deg": 64.9663,
      "raan_deg": 312.3003,
      "arg_perigee_deg": 212.8165,
      "mean_anomaly_deg": 193.2557,
      "mean_motion_rev_day": 2.13204576
    },
    {
      "epoch": "2026-04-27T18:54:38.751264Z",
      "apogee_km": 19174.08581358906,
      "perigee_km": 19069.322266659812,
      "latitude_deg": -35.89389008302853,
      "longitude_deg": 153.10564058386115,
      "height_km": 19148.78091909554,
      "semi_major_axis_km": 25499.841040124436,
      "eccentricity": 0.0020542,
      "inclination_deg": 64.9658,
      "raan_deg": 312.2718,
      "arg_perigee_deg": 212.8191,
      "mean_anomaly_deg": 106.6941,
      "mean_motion_rev_day": 2.13204591
    },
    {
      "epoch": "2026-04-28T19:03:02.108160Z",
      "apogee_km": 19174.091066573535,
      "perigee_km": 19069.312229568608,
      "latitude_deg": 10.497771569254606,
      "longitude_deg": 174.68436356800981,
      "height_km": 19170.404814970112,
      "semi_major_axis_km": 25499.83864807107,
      "eccentricity": 0.0020545,
      "inclination_deg": 64.965,
      "raan_deg": 312.2371,
      "arg_perigee_deg": 212.8143,
      "mean_anomaly_deg": 158.703,
      "mean_motion_rev_day": 2.13204621
    },
    {
      "epoch": "2026-04-29T00:05:22.687584Z",
      "apogee_km": 19174.092707066004,
      "perigee_km": 19069.309791725114,
      "latitude_deg": 6.749669966482255,
      "longitude_deg": -89.24419010127016,
      "height_km": 19081.688416712117,
      "semi_major_axis_km": 25499.838249395558,
      "eccentricity": 0.00205458,
      "inclination_deg": 64.9649,
      "raan_deg": 312.2299,
      "arg_perigee_deg": 212.8212,
      "mean_anomaly_deg": 319.8475,
      "mean_motion_rev_day": 2.13204626
    },
    {
      "epoch": "2026-05-02T06:51:34.994016Z",
      "apogee_km": 19174.090254021794,
      "perigee_km": 19069.301241328496,
      "latitude_deg": 7.550960336844653,
      "longitude_deg": 165.47070420686626,
      "height_km": 19082.201867789263,
      "semi_major_axis_km": 25499.832747675144,
      "eccentricity": 0.0020547,
      "inclination_deg": 64.9631,
      "raan_deg": 312.1168,
      "arg_perigee_deg": 212.8254,
      "mean_anomaly_deg": 318.9515,
      "mean_motion_rev_day": 2.13204695
    }
  ]
}